{"spkid": "50776872", "covariance": {"elements": [{"label": "e", "units": null, "title": "eccentricity", "value": ".5684631306010447", "sigma": 4.25642742314654e-08, "name": "e"}, {"label": "q", "value": "1.017275544724261", "title": "perihelion distance", "units": "au", "sigma": 5.38150381516506e-08, "name": "q"}, {"name": "tp", "sigma": 1.86484697060514e-05, "units": "TDB", "value": "2457934.552956405570", "title": "time of perihelion passage", "label": "tp"}, {"units": "deg", "value": "289.8174113951367", "title": "longitude of the ascending node", "sigma": 5.35794445308001e-06, "name": "om", "label": "node"}, {"sigma": 1.97244341657205e-05, "name": "w", "units": "deg", "title": "argument of perihelion", "value": "349.4034073413804", "label": "peri"}, {"label": "i", "name": "i", "sigma": 2.0281839892633e-05, "units": "deg", "title": "inclination", "value": "55.50850823273171"}], "data": [["1.811717440851386E-15", "8.456684365624267E-16", "5.547193462116937E-13", "2.648313809316326E-14", "5.814008720557362E-13", "-2.03967002743428E-14"], ["8.456684365624267E-16", "2.896058331263609E-15", "4.693271944334398E-13", "-6.89962936787804E-14", "8.431714832978156E-13", "1.972271439692148E-13"], ["5.547193462116937E-13", "4.693271944334398E-13", "3.477654223775178E-10", "3.432309406367875E-11", "3.044908325137085E-10", "-6.895438383812998E-11"], ["2.648313809316326E-14", "-6.89962936787804E-14", "3.432309406367875E-11", "2.870756876229083E-11", "-1.177357089101739E-11", "2.878331956768053E-11"], ["5.814008720557362E-13", "8.431714832978156E-13", "3.044908325137085E-10", "-1.177357089101739E-11", "3.89053303157842E-10", "-1.215475570154387E-11"], ["-2.03967002743428E-14", "1.972271439692148E-13", "-6.895438383812998E-11", "2.878331956768053E-11", "-1.215475570154387E-11", "4.113530294304013E-10"]], "labels": ["e", "q", "tp", "node", "peri", "i"], "epoch": "2458256.5"}, "elements": [{"label": "e", "units": null, "title": "eccentricity", "value": ".5669817452442256", "name": "e", "sigma": "4.6066E-8"}, {"units": "au", "title": "semi-major axis", "value": "2.359837295759699", "sigma": "2.9503E-7", "name": "a", "label": "a"}, {"units": "au", "title": "perihelion distance", "value": "1.021852627317451", "sigma": "4.6882E-8", "name": "q", "label": "q"}, {"label": "i", "sigma": "2.028E-5", "name": "i", "units": "deg", "value": "55.49108060678448", "title": "inclination; angle with respect to x-y ecliptic plane"}, {"label": "node", "value": "289.8126791635373", "title": "longitude of the ascending node", "units": "deg", "name": "om", "sigma": "5.3533E-6"}, {"sigma": "1.9615E-5", "name": "w", "value": "349.5109435981039", "title": "argument of perihelion", "units": "deg", "label": "peri"}, {"title": "mean anomaly", "value": "169.2871012424737", "units": "deg", "name": "ma", "sigma": ".00017362", "label": "M"}, {"sigma": ".00052183", "name": "tp", "units": "TDB", "title": "time of perihelion passage", "value": "2460577.851587021416", "label": "tp"}, {"value": "1324.10223240358", "title": "sidereal orbital period", "units": "d", "sigma": ".00024831", "name": "per", "label": "period"}, {"label": "n", "name": "n", "sigma": "5.0987E-8", "units": "deg/d", "value": ".2718823299213907", "title": "mean motion"}, {"sigma": "4.6231E-7", "name": "ad", "units": "au", "value": "3.697821964201947", "title": "aphelion distance", "label": "Q"}], "epoch": "2461200.5"}